[{"OBJECT_NAME":"TEVEL2-9","OBJECT_ID":"2025-052AD","EPOCH":"2026-03-09T16:51:18.321696","MEAN_MOTION":15.28633834,"ECCENTRICITY":0.000799,"INCLINATION":97.4057,"RA_OF_ASC_NODE":324.3929,"ARG_OF_PERICENTER":124.2475,"MEAN_ANOMALY":235.9522,"EPHEMERIS_TYPE":0,"CLASSIFICATION_TYPE":"U","NORAD_CAT_ID":63237,"ELEMENT_SET_NO":999,"REV_AT_EPOCH":5481,"BSTAR":0.00067240159,"MEAN_MOTION_DOT":0.00018694,"MEAN_MOTION_DDOT":0},{"OBJECT_NAME":"STARLINK-33653","OBJECT_ID":"2025-063T","EPOCH":"2026-03-09T23:27:59.953536","MEAN_MOTION":15.30212451,"ECCENTRICITY":0.00014102,"INCLINATION":53.1601,"RA_OF_ASC_NODE":51.1162,"ARG_OF_PERICENTER":97.2957,"MEAN_ANOMALY":262.8204,"EPHEMERIS_TYPE":0,"CLASSIFICATION_TYPE":"U","NORAD_CAT_ID":63380,"ELEMENT_SET_NO":999,"REV_AT_EPOCH":5475,"BSTAR":0.0012337874,"MEAN_MOTION_DOT":0.00036375,"MEAN_MOTION_DDOT":0}]
